OBJECT B                
1 51825U 22019B   24279.85931484  .00038521  00000+0  14695-2 0  9996
2 51825  97.4177 350.0933 0013070 204.1608 155.9019 15.26488067144087
